ORBCOMM FM103 [+]       
1 40091U 14040F   23311.18619039  .00002010  00000+0  48942-3 0  9992
2 40091  47.0063 269.7734 0001101  99.2721 260.8288 14.56041453495417
ORBCOMM FM114 [+]       
1 41179U 15081A   23311.01549089  .00002128  00000+0  51585-3 0  9992
2 41179  47.0021 179.9252 0001586 174.0810 186.0093 14.56060253418747
ORBCOMM FM119 [-]       
1 41180U 15081B   23311.12023820  .00002510  00000+0  60189-3 0  9991
2 41180  46.9995  88.6222 0002150 242.5296 117.5370 14.56035517419964
ORBCOMM FM105 [-]       
1 41181U 15081C   23310.93028465  .00001016  00000+0  33953-3 0  9999
2 41181  47.0027  39.6462 0002432 220.6441 139.4258 14.44090556415692
ORBCOMM FM110 [+]       
1 41182U 15081D   23310.37487336  .00003098  00000+0  73388-3 0  9992
2 41182  47.0007 182.3636 0001853 342.2072  17.8747 14.56045331418472
ORBCOMM FM118 [+]       
1 41183U 15081E   23310.90099869  .00002375  00000+0  57128-3 0  9993
2 41183  47.0024 180.1550 0002071 347.3530  12.7303 14.56072442418656
ORBCOMM FM112 [+]       
1 41184U 15081F   23310.68647377  .00003135  00000+0  74239-3 0  9999
2 41184  46.9975  89.9167 0002151 224.3176 135.7536 14.56037440419844
ORBCOMM FM113 [+]       
1 41185U 15081G   23310.66260682  .00003195  00000+0  75614-3 0  9992
2 41185  46.9989  90.2533 0001845 242.6188 117.4509 14.56020590419820
